{
  "type": "FeatureCollection",
  "name": "TRF group site map v0.1",
  "properties": {
    "created_on": "2026-07-27",
    "status": "Generated from the saved freeform pass layout through the shared planning-grade local-foot/WGS84 affine transform.",
    "layout_source": "maps/overlays/passes/saved-camp-v0.1.json",
    "saved_at_local": "Mon Jul 27 2026 16:42:11 GMT-0500 (Central Daylight Time)",
    "planning_baseline": "600 sq ft per pass",
    "passes": 10,
    "households": 7,
    "total_planning_area_sqft": 6000,
    "warning": "All positions are planning-grade and must be field-verified; this is not a survey or assigned boundary."
  },
  "features": [
    {
      "type": "Feature",
      "properties": {
        "id": "jc",
        "name": "J. + C.",
        "role": "pass",
        "area_sqft": 600,
        "status": "Saved freeform layout; planning-grade georeferencing, not a survey.",
        "layout_note": "598.875 sq ft RV + canopy equipment footprint, plus 1.125 sq ft boundary buffer",
        "color": "#e69138",
        "source": "planning/households/jc.md",
        "saved_x_ft": 141,
        "saved_y_ft": 76.75,
        "rotation_deg": 0,
        "z": 53
      },
      "geometry": {
        "type": "Polygon",
        "coordinates": [
          [
            [
              -95.846177971445,
              30.255794676538
            ],
            [
              -95.84617504982,
              30.255880888888
            ],
            [
              -95.846220200803,
              30.255882030541
            ],
            [
              -95.846222187201,
              30.255823415175
            ],
            [
              -95.846269714551,
              30.255824616915
            ],
            [
              -95.846270649777,
              30.255797019931
            ],
            [
              -95.846177971445,
              30.255794676538
            ]
          ]
        ]
      }
    },
    {
      "type": "Feature",
      "properties": {
        "id": "jc_rv_envelope",
        "name": "Conservative deployed envelope",
        "role": "equipment_placeholder",
        "status": "31.5 x 14.25 ft planning envelope; not the literal camper outline",
        "dimensions_ft": "31.5 x 14.25 ft",
        "color": "#d9e8f7",
        "source_pass_id": "jc"
      },
      "geometry": {
        "type": "Polygon",
        "coordinates": [
          [
            [
              -95.846220200803,
              30.255882030541
            ],
            [
              -95.84617504982,
              30.255880888888
            ],
            [
              -95.846177971445,
              30.255794676538
            ],
            [
              -95.846223122428,
              30.255795818191
            ],
            [
              -95.846220200803,
              30.255882030541
            ]
          ]
        ]
      }
    },
    {
      "type": "Feature",
      "properties": {
        "id": "jc_rv_body",
        "name": "Wildcat body",
        "role": "known_equipment",
        "status": "approximately 8 x 29.5 ft floorplan-derived body within the conservative envelope; exact model and dimensions require field verification",
        "dimensions_ft": "approx. 8 x 29.5 ft",
        "color": "#f0f2f4",
        "source_pass_id": "jc"
      },
      "geometry": {
        "type": "Polygon",
        "coordinates": [
          [
            [
              -95.846212195756,
              30.255876349641
            ],
            [
              -95.846186847836,
              30.255875708713
            ],
            [
              -95.846189583961,
              30.255794970163
            ],
            [
              -95.846214931881,
              30.255795611091
            ],
            [
              -95.846212195756,
              30.255876349641
            ]
          ]
        ]
      }
    },
    {
      "type": "Feature",
      "properties": {
        "id": "jc_slide_kitchen",
        "name": "Kitchen slide",
        "role": "equipment_placeholder",
        "status": "floorplan-derived west-side projection; approximately 25 in in the detailed planning schematic; field verify",
        "dimensions_ft": "~25 in west",
        "color": "#9bc3e6",
        "source_pass_id": "jc"
      },
      "geometry": {
        "type": "Polygon",
        "coordinates": [
          [
            [
              -95.84621914987,
              30.255866253308
            ],
            [
              -95.846212543568,
              30.255866086266
            ],
            [
              -95.846213262381,
              30.255844875291
            ],
            [
              -95.846219868682,
              30.255845042333
            ],
            [
              -95.84621914987,
              30.255866253308
            ]
          ]
        ]
      }
    },
    {
      "type": "Feature",
      "properties": {
        "id": "jc_slide_living",
        "name": "Living / dinette slide",
        "role": "equipment_placeholder",
        "status": "floorplan-derived east-side projection; approximately 38 in in the detailed planning schematic; field verify",
        "dimensions_ft": "~38 in east",
        "color": "#9bc3e6",
        "source_pass_id": "jc"
      },
      "geometry": {
        "type": "Polygon",
        "coordinates": [
          [
            [
              -95.846187149273,
              30.255866813788
            ],
            [
              -95.846177121002,
              30.255866560221
            ],
            [
              -95.84617825719,
              30.255833033196
            ],
            [
              -95.846188285461,
              30.255833286763
            ],
            [
              -95.846187149273,
              30.255866813788
            ]
          ]
        ]
      }
    },
    {
      "type": "Feature",
      "properties": {
        "id": "jc_slide_bedroom",
        "name": "Bedroom slide",
        "role": "equipment_placeholder",
        "status": "floorplan-derived east-side projection; approximately 29 in in the detailed planning schematic; field verify",
        "dimensions_ft": "~29 in east",
        "color": "#9bc3e6",
        "source_pass_id": "jc"
      },
      "geometry": {
        "type": "Polygon",
        "coordinates": [
          [
            [
              -95.846188563711,
              30.255825076063
            ],
            [
              -95.846180911807,
              30.255824882583
            ],
            [
              -95.84618153787,
              30.255806408508
            ],
            [
              -95.846189189773,
              30.255806601988
            ],
            [
              -95.846188563711,
              30.255825076063
            ]
          ]
        ]
      }
    },
    {
      "type": "Feature",
      "properties": {
        "id": "jc_entry_steps",
        "name": "Entry + steps west",
        "role": "equipment_line_placeholder",
        "status": "floorplan-derived west-side entry; stair projection requires field measurement",
        "dimensions_ft": "",
        "color": "#a56200",
        "source_pass_id": "jc"
      },
      "geometry": {
        "type": "LineString",
        "coordinates": [
          [
            -95.846214152781,
            30.255818601051
          ],
          [
            -95.846220879657,
            30.255815210123
          ]
        ]
      }
    },
    {
      "type": "Feature",
      "properties": {
        "id": "jc_hitch",
        "name": "Hitch / front south",
        "role": "equipment_line_placeholder",
        "status": "floorplan-derived orientation; exact hitch geometry requires measurement",
        "dimensions_ft": "",
        "color": "#303941",
        "source_pass_id": "jc"
      },
      "geometry": {
        "type": "LineString",
        "coordinates": [
          [
            -95.846202063146,
            30.255801038117
          ],
          [
            -95.846202234733,
            30.255795974852
          ]
        ]
      }
    },
    {
      "type": "Feature",
      "properties": {
        "id": "jc_canopy",
        "name": "Canopy",
        "role": "known_equipment",
        "status": "working template; dimensions must be verified",
        "dimensions_ft": "15 x 10 ft",
        "color": "#f6b26b",
        "source_pass_id": "jc"
      },
      "geometry": {
        "type": "Polygon",
        "coordinates": [
          [
            [
              -95.846269714551,
              30.255824616915
            ],
            [
              -95.846222187201,
              30.255823415175
            ],
            [
              -95.846223114701,
              30.255796046175
            ],
            [
              -95.846270642051,
              30.255797247915
            ],
            [
              -95.846269714551,
              30.255824616915
            ]
          ]
        ]
      }
    },
    {
      "type": "Feature",
      "properties": {
        "id": "ss_camper",
        "name": "S. + S. \u2014 Camper",
        "role": "pass",
        "area_sqft": 600,
        "status": "Saved freeform layout; planning-grade georeferencing, not a survey.",
        "layout_note": "",
        "color": "#93c47d",
        "source": "equipment/ss-kz-connect-se-c312bhkse.md",
        "saved_x_ft": 79.5,
        "saved_y_ft": 164.75,
        "rotation_deg": -2,
        "z": 52
      },
      "geometry": {
        "type": "Polygon",
        "coordinates": [
          [
            [
              -95.846472978059,
              30.255646379138
            ],
            [
              -95.846434940498,
              30.255646564529
            ],
            [
              -95.846434868957,
              30.255635612414
            ],
            [
              -95.846425359567,
              30.255635658761
            ],
            [
              -95.846425216485,
              30.255613754531
            ],
            [
              -95.846434725876,
              30.255613708184
            ],
            [
              -95.846434627507,
              30.255598649025
            ],
            [
              -95.846409269133,
              30.255598772619
            ],
            [
              -95.84640905451,
              30.255565916274
            ],
            [
              -95.846434412884,
              30.25556579268
            ],
            [
              -95.84643422509,
              30.255537043378
            ],
            [
              -95.846472262651,
              30.255536857987
            ],
            [
              -95.846472978059,
              30.255646379138
            ]
          ]
        ]
      }
    },
    {
      "type": "Feature",
      "properties": {
        "id": "ss_camper_body",
        "name": "Camper body",
        "role": "known_equipment",
        "status": "published manufacturer dimensions; model year/VIN not yet confirmed",
        "dimensions_ft": "36 ft 9 in x 8 ft (rear bumper to coupler)",
        "color": "#3d85c6",
        "source_pass_id": "ss_camper"
      },
      "geometry": {
        "type": "Polygon",
        "coordinates": [
          [
            [
              -95.846461220748,
              30.255641987003
            ],
            [
              -95.846435862374,
              30.255642110597
            ],
            [
              -95.846435205092,
              30.25554148804
            ],
            [
              -95.846460563466,
              30.255541364446
            ],
            [
              -95.846461220748,
              30.255641987003
            ]
          ]
        ]
      }
    },
    {
      "type": "Feature",
      "properties": {
        "id": "ss_camper_slide_bunk",
        "name": "Rear bunkhouse slide",
        "role": "equipment_placeholder",
        "status": "scale-derived from floorplan artwork; not measured on this unit; unsuitable for approval",
        "dimensions_ft": "~3 ft 1 in projection (estimate)",
        "color": "#a9c9e8",
        "source_pass_id": "ss_camper"
      },
      "geometry": {
        "type": "Polygon",
        "coordinates": [
          [
            [
              -95.846471033257,
              30.255639817138
            ],
            [
              -95.846461206887,
              30.255639865031
            ],
            [
              -95.846461065594,
              30.255618234604
            ],
            [
              -95.846470891964,
              30.255618186711
            ],
            [
              -95.846471033257,
              30.255639817138
            ]
          ]
        ]
      }
    },
    {
      "type": "Feature",
      "properties": {
        "id": "ss_camper_slide_main",
        "name": "Main living slide",
        "role": "equipment_placeholder",
        "status": "scale-derived from floorplan artwork; not measured on this unit; unsuitable for approval",
        "dimensions_ft": "~3 ft 9 in projection (estimate)",
        "color": "#a9c9e8",
        "source_pass_id": "ss_camper"
      },
      "geometry": {
        "type": "Polygon",
        "coordinates": [
          [
            [
              -95.84647275986,
              30.255612975187
            ],
            [
              -95.846461031612,
              30.255613032349
            ],
            [
              -95.84646075618,
              30.255570866706
            ],
            [
              -95.846472484428,
              30.255570809544
            ],
            [
              -95.84647275986,
              30.255612975187
            ]
          ]
        ]
      }
    },
    {
      "type": "Feature",
      "properties": {
        "id": "ss_rear_service_zone",
        "name": "Rear service bay",
        "role": "equipment_placeholder",
        "status": "provisional 3 x 8 ft service bay; appliance doors, griddle, and step projections require measurement",
        "dimensions_ft": "3 x 8 ft provisional",
        "color": "#f6b26b",
        "source_pass_id": "ss_camper"
      },
      "geometry": {
        "type": "Polygon",
        "coordinates": [
          [
            [
              -95.846434868957,
              30.255635612414
            ],
            [
              -95.846425359567,
              30.255635658761
            ],
            [
              -95.846425216485,
              30.255613754531
            ],
            [
              -95.846434725876,
              30.255613708184
            ],
            [
              -95.846434868957,
              30.255635612414
            ]
          ]
        ]
      }
    },
    {
      "type": "Feature",
      "properties": {
        "id": "ss_rug_zone",
        "name": "Rug zone",
        "role": "equipment_placeholder",
        "status": "working assumption; confirm actual rug dimensions and placement",
        "dimensions_ft": "8 x 12 ft provisional",
        "color": "#d9b38c",
        "source_pass_id": "ss_camper"
      },
      "geometry": {
        "type": "Polygon",
        "coordinates": [
          [
            [
              -95.846434627507,
              30.255598649025
            ],
            [
              -95.846409269133,
              30.255598772619
            ],
            [
              -95.84640905451,
              30.255565916274
            ],
            [
              -95.846434412884,
              30.25556579268
            ],
            [
              -95.846434627507,
              30.255598649025
            ]
          ]
        ]
      }
    },
    {
      "type": "Feature",
      "properties": {
        "id": "ss_rear_steps",
        "name": "Rear steps",
        "role": "equipment_placeholder",
        "status": "floorplan-derived location; projection requires measurement",
        "dimensions_ft": "projection TBD",
        "color": "#c58b55",
        "source_pass_id": "ss_camper"
      },
      "geometry": {
        "type": "Polygon",
        "coordinates": [
          [
            [
              -95.846435721528,
              30.255620548621
            ],
            [
              -95.846425261198,
              30.255620599603
            ],
            [
              -95.846425225428,
              30.255615123546
            ],
            [
              -95.846435685757,
              30.255615072563
            ],
            [
              -95.846435721528,
              30.255620548621
            ]
          ]
        ]
      }
    },
    {
      "type": "Feature",
      "properties": {
        "id": "ss_main_steps",
        "name": "Main steps",
        "role": "equipment_placeholder",
        "status": "floorplan-derived location; projection requires measurement",
        "dimensions_ft": "projection TBD",
        "color": "#c58b55",
        "source_pass_id": "ss_camper"
      },
      "geometry": {
        "type": "Polygon",
        "coordinates": [
          [
            [
              -95.846435399594,
              30.255571264103
            ],
            [
              -95.846424939265,
              30.255571315085
            ],
            [
              -95.846424903494,
              30.255565839028
            ],
            [
              -95.846435363824,
              30.255565788045
            ],
            [
              -95.846435399594,
              30.255571264103
            ]
          ]
        ]
      }
    },
    {
      "type": "Feature",
      "properties": {
        "id": "ss_awning",
        "name": "18 ft awning",
        "role": "equipment_line_placeholder",
        "status": "published length; projection and support locations require measurement",
        "dimensions_ft": "projection TBD",
        "color": "#2e7d32",
        "source_pass_id": "ss_camper"
      },
      "geometry": {
        "type": "LineString",
        "coordinates": [
          [
            -95.846434734818,
            30.255615077198
          ],
          [
            -95.846434412884,
            30.25556579268
          ]
        ]
      }
    },
    {
      "type": "Feature",
      "properties": {
        "id": "ss_rear_door",
        "name": "Rear door",
        "role": "equipment_line_placeholder",
        "status": "floorplan-derived location; verify on actual unit",
        "dimensions_ft": "",
        "color": "#a56200",
        "source_pass_id": "ss_camper"
      },
      "geometry": {
        "type": "LineString",
        "coordinates": [
          [
            -95.846435717951,
            30.255620001015
          ],
          [
            -95.846435692911,
            30.255616167775
          ]
        ]
      }
    },
    {
      "type": "Feature",
      "properties": {
        "id": "ss_main_door",
        "name": "Main door",
        "role": "equipment_line_placeholder",
        "status": "floorplan-derived location; verify on actual unit",
        "dimensions_ft": "",
        "color": "#a56200",
        "source_pass_id": "ss_camper"
      },
      "geometry": {
        "type": "LineString",
        "coordinates": [
          [
            -95.84643539244,
            30.255570168891
          ],
          [
            -95.846435367401,
            30.255566335651
          ]
        ]
      }
    },
    {
      "type": "Feature",
      "properties": {
        "id": "ss_shower",
        "name": "S. + S. \u2014 Pass B / Shower",
        "role": "pass",
        "area_sqft": 600,
        "status": "Saved freeform layout; planning-grade georeferencing, not a survey.",
        "layout_note": "432 + 66 + 102 = 600 sq ft",
        "color": "#93c47d",
        "source": "equipment/ss-16ft-shower-trailer.md",
        "saved_x_ft": 91.5,
        "saved_y_ft": 117.75,
        "rotation_deg": -104,
        "z": 58
      },
      "geometry": {
        "type": "Polygon",
        "coordinates": [
          [
            [
              -95.846461969905,
              30.255658891925
            ],
            [
              -95.846478206678,
              30.255723091546
            ],
            [
              -95.846422464088,
              30.255733610382
            ],
            [
              -95.8464153605,
              30.255705523049
            ],
            [
              -95.846347230667,
              30.255718379405
            ],
            [
              -95.846349666183,
              30.255728009348
            ],
            [
              -95.846318698078,
              30.255733853146
            ],
            [
              -95.846311797449,
              30.255706568307
            ],
            [
              -95.846342765555,
              30.255700724509
            ],
            [
              -95.846345201071,
              30.255710354452
            ],
            [
              -95.846413330903,
              30.255697498096
            ],
            [
              -95.846406227315,
              30.255669410762
            ],
            [
              -95.846461969905,
              30.255658891925
            ]
          ]
        ]
      }
    },
    {
      "type": "Feature",
      "properties": {
        "id": "ss_shower_trailer",
        "name": "Assumed utility-trailer deck",
        "role": "equipment_placeholder",
        "status": "16 ft stated deck length with 7 ft planning width; actual deck and maximum fender width require measurement",
        "dimensions_ft": "16 x 7 ft planning assumption",
        "color": "#245b24",
        "source_pass_id": "ss_shower"
      },
      "geometry": {
        "type": "Polygon",
        "coordinates": [
          [
            [
              -95.846464676034,
              30.255669591862
            ],
            [
              -95.846475500549,
              30.255712391609
            ],
            [
              -95.846453822875,
              30.255716482268
            ],
            [
              -95.84644299836,
              30.255673682521
            ],
            [
              -95.846464676034,
              30.255669591862
            ]
          ]
        ]
      }
    },
    {
      "type": "Feature",
      "properties": {
        "id": "ss_shower_ramp",
        "name": "Full-width rear ramp",
        "role": "equipment_placeholder",
        "status": "full-width fold-down ramp confirmed; 4 ft deployed depth is a planning assumption requiring measurement",
        "dimensions_ft": "7 x 4 ft assumed deployed",
        "color": "#f6b26b",
        "source_pass_id": "ss_shower"
      },
      "geometry": {
        "type": "Polygon",
        "coordinates": [
          [
            [
              -95.846475500549,
              30.255712391609
            ],
            [
              -95.846478206678,
              30.255723091546
            ],
            [
              -95.846456529004,
              30.255727182204
            ],
            [
              -95.846453822875,
              30.255716482268
            ],
            [
              -95.846475500549,
              30.255712391609
            ]
          ]
        ]
      }
    },
    {
      "type": "Feature",
      "properties": {
        "id": "ss_shower_tongue",
        "name": "Tongue / jack allowance",
        "role": "equipment_line_placeholder",
        "status": "provisional 4 ft centerline allowance; actual coupler, A-frame, jack, and tow-clearance geometry unknown",
        "dimensions_ft": "4 ft assumed",
        "color": "#555555",
        "source_pass_id": "ss_shower"
      },
      "geometry": {
        "type": "LineString",
        "coordinates": [
          [
            -95.846448034258,
            30.255661521634
          ],
          [
            -95.846450740387,
            30.255672221571
          ]
        ]
      }
    },
    {
      "type": "Feature",
      "properties": {
        "id": "ss_shower_left_wheel",
        "name": "Wheel/fender allowance",
        "role": "equipment_placeholder",
        "status": "provisional only; axle, tires, fenders, stabilizers, and maximum trailer width require measurement",
        "dimensions_ft": "",
        "color": "#555555",
        "source_pass_id": "ss_shower"
      },
      "geometry": {
        "type": "Polygon",
        "coordinates": [
          [
            [
              -95.846468735227,
              30.255685641767
            ],
            [
              -95.846471441356,
              30.255696341704
            ],
            [
              -95.846468344545,
              30.255696926084
            ],
            [
              -95.846465638417,
              30.255686226147
            ],
            [
              -95.846468735227,
              30.255685641767
            ]
          ]
        ]
      }
    },
    {
      "type": "Feature",
      "properties": {
        "id": "ss_shower_right_wheel",
        "name": "Wheel/fender allowance",
        "role": "equipment_placeholder",
        "status": "provisional only; axle, tires, fenders, stabilizers, and maximum trailer width require measurement",
        "dimensions_ft": "",
        "color": "#555555",
        "source_pass_id": "ss_shower"
      },
      "geometry": {
        "type": "Polygon",
        "coordinates": [
          [
            [
              -95.846450154364,
              30.255689148046
            ],
            [
              -95.846452860493,
              30.255699847983
            ],
            [
              -95.846449763682,
              30.255700432363
            ],
            [
              -95.846447057553,
              30.255689732426
            ],
            [
              -95.846450154364,
              30.255689148046
            ]
          ]
        ]
      }
    },
    {
      "type": "Feature",
      "properties": {
        "id": "ss_water_trailer",
        "name": "IBC water trailer",
        "role": "equipment_placeholder",
        "status": "provisional 5 x 8 ft deck assumption for the stated small 8 ft trailer; actual deck, fenders, axle, load rating, and overall length TBD",
        "dimensions_ft": "assumed 5 x 8 ft deck",
        "color": "#6fa8dc",
        "source_pass_id": "ss_shower"
      },
      "geometry": {
        "type": "Polygon",
        "coordinates": [
          [
            [
              -95.846446719287,
              30.255688394934
            ],
            [
              -95.846450101948,
              30.255701769855
            ],
            [
              -95.846425327464,
              30.255706444893
            ],
            [
              -95.846421944803,
              30.255693069972
            ],
            [
              -95.846446719287,
              30.255688394934
            ]
          ]
        ]
      }
    },
    {
      "type": "Feature",
      "properties": {
        "id": "ss_water_tote",
        "name": "IBC water tote",
        "role": "equipment_placeholder",
        "status": "provisional 4 x 4 ft planning footprint on the water trailer; actual tote dimensions, capacity, restraint, fill, vent, valve, and loaded weight TBD",
        "dimensions_ft": "assumed 4 x 4 ft",
        "color": "#3d85c6",
        "source_pass_id": "ss_shower"
      },
      "geometry": {
        "type": "Polygon",
        "coordinates": [
          [
            [
              -95.846440863932,
              30.255690901185
            ],
            [
              -95.846443570061,
              30.255701601122
            ],
            [
              -95.846431182819,
              30.255703938641
            ],
            [
              -95.84642847669,
              30.255693238705
            ],
            [
              -95.846440863932,
              30.255690901185
            ]
          ]
        ]
      }
    },
    {
      "type": "Feature",
      "properties": {
        "id": "ss_water_trailer_tongue",
        "name": "Water-trailer tongue",
        "role": "equipment_line_placeholder",
        "status": "provisional 3 ft centerline allowance; actual coupler, A-frame, jack, and tow-clearance geometry unknown",
        "dimensions_ft": "3 ft assumed",
        "color": "#555555",
        "source_pass_id": "ss_shower"
      },
      "geometry": {
        "type": "LineString",
        "coordinates": [
          [
            -95.846423636133,
            30.255699757433
          ],
          [
            -95.846414345701,
            30.255701510572
          ]
        ]
      }
    },
    {
      "type": "Feature",
      "properties": {
        "id": "ss_water_trailer_left_wheel",
        "name": "Water-trailer wheel/fender",
        "role": "equipment_placeholder",
        "status": "provisional only; axle, tires, fenders, stabilizers, and maximum trailer width require measurement",
        "dimensions_ft": "",
        "color": "#555555",
        "source_pass_id": "ss_shower"
      },
      "geometry": {
        "type": "Polygon",
        "coordinates": [
          [
            [
              -95.846436752323,
              30.255687473089
            ],
            [
              -95.846437428855,
              30.255690148073
            ],
            [
              -95.846431235234,
              30.255691316833
            ],
            [
              -95.846430558702,
              30.255688641849
            ],
            [
              -95.846436752323,
              30.255687473089
            ]
          ]
        ]
      }
    },
    {
      "type": "Feature",
      "properties": {
        "id": "ss_water_trailer_right_wheel",
        "name": "Water-trailer wheel/fender",
        "role": "equipment_placeholder",
        "status": "provisional only; axle, tires, fenders, stabilizers, and maximum trailer width require measurement",
        "dimensions_ft": "",
        "color": "#555555",
        "source_pass_id": "ss_shower"
      },
      "geometry": {
        "type": "Polygon",
        "coordinates": [
          [
            [
              -95.846440811516,
              30.255703522994
            ],
            [
              -95.846441488049,
              30.255706197978
            ],
            [
              -95.846435294427,
              30.255707366738
            ],
            [
              -95.846434617895,
              30.255704691754
            ],
            [
              -95.846440811516,
              30.255703522994
            ]
          ]
        ]
      }
    },
    {
      "type": "Feature",
      "properties": {
        "id": "ss_fire_pit",
        "name": "Fire pit",
        "role": "equipment_placeholder",
        "status": "provisional 3 x 3 ft fire-pit footprint inside a 10.2 x 10 ft end zone; actual pit, spark, fuel, extinguisher, and combustible clearances plus festival approval TBD",
        "dimensions_ft": "3 x 3 ft assumed",
        "color": "#cc4125",
        "source_pass_id": "ss_shower"
      },
      "geometry": {
        "type": "Polygon",
        "coordinates": [
          [
            [
              -95.846334362234,
              30.255712399781
            ],
            [
              -95.84633639183,
              30.255720424734
            ],
            [
              -95.846327101399,
              30.255722177873
            ],
            [
              -95.846325071802,
              30.255714152921
            ],
            [
              -95.846334362234,
              30.255712399781
            ]
          ]
        ]
      }
    },
    {
      "type": "Feature",
      "properties": {
        "id": "me_camper",
        "name": "M. + E. \u2014 Mirrored Camper",
        "role": "pass",
        "area_sqft": 600,
        "status": "Saved freeform layout; planning-grade georeferencing, not a survey.",
        "layout_note": "",
        "color": "#6fa8dc",
        "source": "planning/households/me.md",
        "saved_x_ft": 157.25,
        "saved_y_ft": 187.75,
        "rotation_deg": 10,
        "z": 50
      },
      "geometry": {
        "type": "Polygon",
        "coordinates": [
          [
            [
              -95.846152832195,
              30.255570681937
            ],
            [
              -95.846190083167,
              30.255577331816
            ],
            [
              -95.84619264934,
              30.255566606183
            ],
            [
              -95.846201962083,
              30.255568268652
            ],
            [
              -95.846207094431,
              30.255546817386
            ],
            [
              -95.846197781688,
              30.255545154916
            ],
            [
              -95.846201310177,
              30.25553040717
            ],
            [
              -95.846226144158,
              30.255534840422
            ],
            [
              -95.846233842679,
              30.255502663522
            ],
            [
              -95.846209008698,
              30.25549823027
            ],
            [
              -95.846215744904,
              30.255470075482
            ],
            [
              -95.846178493932,
              30.255463425604
            ],
            [
              -95.846152832195,
              30.255570681937
            ]
          ]
        ]
      }
    },
    {
      "type": "Feature",
      "properties": {
        "id": "me_camper_placeholder",
        "name": "Mirrored reference body",
        "role": "equipment_placeholder",
        "status": "temporary mirror of S./S. reference only; not evidence of M./E. camper dimensions",
        "dimensions_ft": "36.75 x 8 ft placeholder",
        "color": "#3d85c6",
        "source_pass_id": "me_camper"
      },
      "geometry": {
        "type": "Polygon",
        "coordinates": [
          [
            [
              -95.8461901944,
              30.25557280828
            ],
            [
              -95.846165360419,
              30.255568375028
            ],
            [
              -95.84618893714,
              30.255469833271
            ],
            [
              -95.846213771122,
              30.255474266524
            ],
            [
              -95.8461901944,
              30.25557280828
            ]
          ]
        ]
      }
    },
    {
      "type": "Feature",
      "properties": {
        "id": "me_slide_bunk_placeholder",
        "name": "Mirrored bunk slide",
        "role": "equipment_placeholder",
        "status": "temporary mirrored estimate only; actual slide count, side, length, and projection unknown",
        "dimensions_ft": "reference only",
        "color": "#a9c9e8",
        "source_pass_id": "me_camper"
      },
      "geometry": {
        "type": "Polygon",
        "coordinates": [
          [
            [
              -95.846165857615,
              30.255566296937
            ],
            [
              -95.846156234448,
              30.255564579051
            ],
            [
              -95.846161302641,
              30.255543395925
            ],
            [
              -95.846170925809,
              30.255545113811
            ],
            [
              -95.846165857615,
              30.255566296937
            ]
          ]
        ]
      }
    },
    {
      "type": "Feature",
      "properties": {
        "id": "me_slide_main_placeholder",
        "name": "Mirrored main slide",
        "role": "equipment_placeholder",
        "status": "temporary mirrored estimate only; actual slide count, side, length, and projection unknown",
        "dimensions_ft": "reference only",
        "color": "#a9c9e8",
        "source_pass_id": "me_camper"
      },
      "geometry": {
        "type": "Polygon",
        "coordinates": [
          [
            [
              -95.846172144741,
              30.255540019135
            ],
            [
              -95.846160659025,
              30.255537968756
            ],
            [
              -95.846170538794,
              30.255496675067
            ],
            [
              -95.84618202451,
              30.255498725446
            ],
            [
              -95.846172144741,
              30.255540019135
            ]
          ]
        ]
      }
    },
    {
      "type": "Feature",
      "properties": {
        "id": "me_rear_service_placeholder",
        "name": "Mirrored service bay",
        "role": "equipment_placeholder",
        "status": "temporary mirror only; actual doors, kitchen, appliances, and steps unknown",
        "dimensions_ft": "3 x 8 ft reference",
        "color": "#f6b26b",
        "source_pass_id": "me_camper"
      },
      "geometry": {
        "type": "Polygon",
        "coordinates": [
          [
            [
              -95.846201962083,
              30.255568268652
            ],
            [
              -95.84619264934,
              30.255566606183
            ],
            [
              -95.846197781688,
              30.255545154916
            ],
            [
              -95.846207094431,
              30.255546817386
            ],
            [
              -95.846201962083,
              30.255568268652
            ]
          ]
        ]
      }
    },
    {
      "type": "Feature",
      "properties": {
        "id": "me_rug_placeholder",
        "name": "Mirrored rug bay",
        "role": "equipment_placeholder",
        "status": "temporary 8 x 12 ft mirrored planning zone; actual need and dimensions unknown",
        "dimensions_ft": "8 x 12 ft reference",
        "color": "#d9b38c",
        "source_pass_id": "me_camper"
      },
      "geometry": {
        "type": "Polygon",
        "coordinates": [
          [
            [
              -95.846226144158,
              30.255534840422
            ],
            [
              -95.846201310177,
              30.25553040717
            ],
            [
              -95.846209008698,
              30.25549823027
            ],
            [
              -95.846233842679,
              30.255502663522
            ],
            [
              -95.846226144158,
              30.255534840422
            ]
          ]
        ]
      }
    },
    {
      "type": "Feature",
      "properties": {
        "id": "me_rear_steps_placeholder",
        "name": "Mirrored rear steps",
        "role": "equipment_placeholder",
        "status": "temporary mirror only; actual door and step geometry unknown",
        "dimensions_ft": "",
        "color": "#c58b55",
        "source_pass_id": "me_camper"
      },
      "geometry": {
        "type": "Polygon",
        "coordinates": [
          [
            [
              -95.846205490572,
              30.255553520906
            ],
            [
              -95.846195246555,
              30.25555169219
            ],
            [
              -95.846196529642,
              30.255546329373
            ],
            [
              -95.846206773659,
              30.25554815809
            ],
            [
              -95.846205490572,
              30.255553520906
            ]
          ]
        ]
      }
    },
    {
      "type": "Feature",
      "properties": {
        "id": "me_main_steps_placeholder",
        "name": "Mirrored main steps",
        "role": "equipment_placeholder",
        "status": "temporary mirror only; actual door and step geometry unknown",
        "dimensions_ft": "",
        "color": "#c58b55",
        "source_pass_id": "me_camper"
      },
      "geometry": {
        "type": "Polygon",
        "coordinates": [
          [
            [
              -95.846217038354,
              30.255505255556
            ],
            [
              -95.846206794337,
              30.25550342684
            ],
            [
              -95.846208077424,
              30.255498064023
            ],
            [
              -95.846218321441,
              30.25549989274
            ],
            [
              -95.846217038354,
              30.255505255556
            ]
          ]
        ]
      }
    },
    {
      "type": "Feature",
      "properties": {
        "id": "me_awning_placeholder",
        "name": "Mirrored awning",
        "role": "equipment_line_placeholder",
        "status": "temporary 18 ft mirrored reference only; actual awning unknown",
        "dimensions_ft": "reference only",
        "color": "#2e7d32",
        "source_pass_id": "me_camper"
      },
      "geometry": {
        "type": "LineString",
        "coordinates": [
          [
            -95.846197460916,
            30.25554649562
          ],
          [
            -95.846209008698,
            30.25549823027
          ]
        ]
      }
    },
    {
      "type": "Feature",
      "properties": {
        "id": "me_rear_door_placeholder",
        "name": "Mirrored rear door",
        "role": "equipment_line_placeholder",
        "status": "temporary mirror only; actual doors unknown",
        "dimensions_ft": "",
        "color": "#a56200",
        "source_pass_id": "me_camper"
      },
      "geometry": {
        "type": "LineString",
        "coordinates": [
          [
            -95.846195374864,
            30.255551155908
          ],
          [
            -95.846196273024,
            30.255547401936
          ]
        ]
      }
    },
    {
      "type": "Feature",
      "properties": {
        "id": "me_main_door_placeholder",
        "name": "Mirrored main door",
        "role": "equipment_line_placeholder",
        "status": "temporary mirror only; actual doors unknown",
        "dimensions_ft": "",
        "color": "#a56200",
        "source_pass_id": "me_camper"
      },
      "geometry": {
        "type": "LineString",
        "coordinates": [
          [
            -95.846207050954,
            30.255502354276
          ],
          [
            -95.846207949115,
            30.255498600305
          ]
        ]
      }
    },
    {
      "type": "Feature",
      "properties": {
        "id": "me_support",
        "name": "M. + E. \u2014 Pass B / Support",
        "role": "pass",
        "area_sqft": 600,
        "status": "Saved freeform layout; planning-grade georeferencing, not a survey.",
        "layout_note": "",
        "color": "#6fa8dc",
        "source": "planning/households/me.md",
        "saved_x_ft": 136.75,
        "saved_y_ft": 116.25,
        "rotation_deg": 0,
        "z": 52
      },
      "geometry": {
        "type": "Polygon",
        "coordinates": [
          [
            [
              -95.84628485786,
              30.255775465224
            ],
            [
              -95.84622148806,
              30.255773862904
            ],
            [
              -95.84622427056,
              30.255691755904
            ],
            [
              -95.84628764036,
              30.255693358224
            ],
            [
              -95.84628485786,
              30.255775465224
            ]
          ]
        ]
      }
    },
    {
      "type": "Feature",
      "properties": {
        "id": "a",
        "name": "A.",
        "role": "pass",
        "area_sqft": 600,
        "status": "Saved freeform layout; planning-grade georeferencing, not a survey.",
        "layout_note": "",
        "color": "#76a5af",
        "source": "planning/a-site-notes.md",
        "saved_x_ft": 94.25,
        "saved_y_ft": 202,
        "rotation_deg": 103,
        "z": 57
      },
      "geometry": {
        "type": "Polygon",
        "coordinates": [
          [
            [
              -95.846322813922,
              30.255512821993
            ],
            [
              -95.846342892122,
              30.255446603712
            ],
            [
              -95.846379689133,
              30.255454928486
            ],
            [
              -95.846374468801,
              30.255472145239
            ],
            [
              -95.846451129241,
              30.255489488518
            ],
            [
              -95.846441491705,
              30.255521273293
            ],
            [
              -95.846364831265,
              30.255503930014
            ],
            [
              -95.846359610933,
              30.255521146767
            ],
            [
              -95.846322813922,
              30.255512821993
            ]
          ]
        ]
      }
    },
    {
      "type": "Feature",
      "properties": {
        "id": "a_sleep_buffer",
        "name": "Sleeping tent provisional clearance",
        "role": "clearance_placeholder",
        "status": "Planning buffer only; verify actual operating clearance.",
        "source_pass_id": "a"
      },
      "geometry": {
        "type": "Polygon",
        "coordinates": [
          [
            [
              -95.846325953387,
              30.255507871396
            ],
            [
              -95.846342819075,
              30.25545224804
            ],
            [
              -95.846376549668,
              30.255459879083
            ],
            [
              -95.84635968398,
              30.255515502439
            ],
            [
              -95.846325953387,
              30.255507871396
            ]
          ]
        ]
      }
    },
    {
      "type": "Feature",
      "properties": {
        "id": "a_sleep",
        "name": "Sleeping tent",
        "role": "known_equipment",
        "status": "confirmed",
        "dimensions_ft": "20 x 10 ft (rotated)",
        "color": "#76a5af",
        "source_pass_id": "a"
      },
      "geometry": {
        "type": "Polygon",
        "coordinates": [
          [
            [
              -95.84632788816,
              30.255506893896
            ],
            [
              -95.846343950719,
              30.255453919271
            ],
            [
              -95.846374614895,
              30.255460856583
            ],
            [
              -95.846358552336,
              30.255513831208
            ],
            [
              -95.84632788816,
              30.255506893896
            ]
          ]
        ]
      }
    },
    {
      "type": "Feature",
      "properties": {
        "id": "a_yoga_buffer",
        "name": "Yoga Tent (COVERPRO canopy) provisional clearance",
        "role": "clearance_placeholder",
        "status": "Planning buffer only; verify actual operating clearance.",
        "source_pass_id": "a"
      },
      "geometry": {
        "type": "Polygon",
        "coordinates": [
          [
            [
              -95.846386697752,
              30.255507461766
            ],
            [
              -95.84639553216,
              30.255478325723
            ],
            [
              -95.846450727677,
              30.255490812884
            ],
            [
              -95.846441893269,
              30.255519948928
            ],
            [
              -95.846386697752,
              30.255507461766
            ]
          ]
        ]
      }
    },
    {
      "type": "Feature",
      "properties": {
        "id": "a_yoga",
        "name": "Yoga Tent (COVERPRO canopy)",
        "role": "known_equipment",
        "status": "confirmed; bottom-aligned in T stem with 8.5 ft nominal separation",
        "dimensions_ft": "10 x 17 ft",
        "color": "#3d85c6",
        "source_pass_id": "a"
      },
      "geometry": {
        "type": "Polygon",
        "coordinates": [
          [
            [
              -95.846388632525,
              30.255506484266
            ],
            [
              -95.846396663805,
              30.255479996954
            ],
            [
              -95.846448792904,
              30.255491790384
            ],
            [
              -95.846440761624,
              30.255518277696
            ],
            [
              -95.846388632525,
              30.255506484266
            ]
          ]
        ]
      }
    },
    {
      "type": "Feature",
      "properties": {
        "id": "cs",
        "name": "C. + S.",
        "role": "pass",
        "area_sqft": 600,
        "status": "Saved freeform layout; planning-grade georeferencing, not a survey.",
        "layout_note": "40 x 15 = 600 sq ft; equipment = 386 sq ft",
        "color": "#ffd966",
        "source": "planning/households/cs.md",
        "saved_x_ft": 121.25,
        "saved_y_ft": 178.25,
        "rotation_deg": 133,
        "z": 55
      },
      "geometry": {
        "type": "Polygon",
        "coordinates": [
          [
            [
              -95.846215565783,
              30.255609391553
            ],
            [
              -95.846304715304,
              30.255531511434
            ],
            [
              -95.846338525777,
              30.255560388751
            ],
            [
              -95.846249376256,
              30.25563826887
            ],
            [
              -95.846215565783,
              30.255609391553
            ]
          ]
        ]
      }
    },
    {
      "type": "Feature",
      "properties": {
        "id": "cs_row_border",
        "name": "Equipment-row border",
        "role": "known_equipment",
        "status": "continuous planning border around the complete canopy, tent, and add-on row",
        "dimensions_ft": "",
        "color": "none",
        "source_pass_id": "cs"
      },
      "geometry": {
        "type": "Polygon",
        "coordinates": [
          [
            [
              -95.846217819814,
              30.255611316707
            ],
            [
              -95.846304740598,
              30.255535383592
            ],
            [
              -95.846334043008,
              30.2555604106
            ],
            [
              -95.846247122224,
              30.255636343715
            ],
            [
              -95.846217819814,
              30.255611316707
            ]
          ]
        ]
      }
    },
    {
      "type": "Feature",
      "properties": {
        "id": "cs_canopy_placeholder_buffer",
        "name": "Planning canopy provisional clearance",
        "role": "clearance_placeholder",
        "status": "Planning buffer only; verify actual operating clearance.",
        "source_pass_id": "cs"
      },
      "geometry": {
        "type": "Polygon",
        "coordinates": [
          [
            [
              -95.846220073846,
              30.255613241862
            ],
            [
              -95.846251276178,
              30.25558598382
            ],
            [
              -95.846276070525,
              30.255607160519
            ],
            [
              -95.846244868193,
              30.255634418561
            ],
            [
              -95.846220073846,
              30.255613241862
            ]
          ]
        ]
      }
    },
    {
      "type": "Feature",
      "properties": {
        "id": "cs_canopy_placeholder",
        "name": "Planning canopy",
        "role": "equipment_placeholder",
        "status": "10 x 13 ft user-reported planning size; manufacturer/model, leg spacing, anchors, ropes, ballast, and exact relationship to tent require confirmation",
        "dimensions_ft": "10 x 13 ft reported",
        "color": "#f1c232",
        "source_pass_id": "cs"
      },
      "geometry": {
        "type": "Polygon",
        "coordinates": [
          [
            [
              -95.846222315231,
              30.255613230938
            ],
            [
              -95.846251288825,
              30.255587919899
            ],
            [
              -95.84627382914,
              30.255607171443
            ],
            [
              -95.846244855546,
              30.255632482482
            ],
            [
              -95.846222315231,
              30.255613230938
            ]
          ]
        ]
      }
    },
    {
      "type": "Feature",
      "properties": {
        "id": "cs_tent_main_buffer",
        "name": "Main tent provisional clearance",
        "role": "clearance_placeholder",
        "status": "Planning buffer only; verify actual operating clearance.",
        "source_pass_id": "cs"
      },
      "geometry": {
        "type": "Polygon",
        "coordinates": [
          [
            [
              -95.846249022147,
              30.255584058666
            ],
            [
              -95.846286910693,
              30.255550959615
            ],
            [
              -95.846316213103,
              30.255575986623
            ],
            [
              -95.846278324557,
              30.255609085674
            ],
            [
              -95.846249022147,
              30.255584058666
            ]
          ]
        ]
      }
    },
    {
      "type": "Feature",
      "properties": {
        "id": "cs_tent_main",
        "name": "Main tent",
        "role": "known_equipment",
        "status": "12 x 16 ft user-reported planning size; exact deployed footprint requires measurement",
        "dimensions_ft": "12 x 16 ft reported",
        "color": "#e6b800",
        "source_pass_id": "cs"
      },
      "geometry": {
        "type": "Polygon",
        "coordinates": [
          [
            [
              -95.846251263532,
              30.255584047742
            ],
            [
              -95.84628692334,
              30.255552895694
            ],
            [
              -95.846313971719,
              30.255575997548
            ],
            [
              -95.84627831191,
              30.255607149595
            ],
            [
              -95.846251263532,
              30.255584047742
            ]
          ]
        ]
      }
    },
    {
      "type": "Feature",
      "properties": {
        "id": "cs_tent_addon_buffer",
        "name": "Add-on room provisional clearance",
        "role": "clearance_placeholder",
        "status": "Planning buffer only; verify actual operating clearance.",
        "source_pass_id": "cs"
      },
      "geometry": {
        "type": "Polygon",
        "coordinates": [
          [
            [
              -95.846289190018,
              30.255556756927
            ],
            [
              -95.846309248661,
              30.255539233901
            ],
            [
              -95.846329534945,
              30.255556560291
            ],
            [
              -95.846309476302,
              30.255574083317
            ],
            [
              -95.846289190018,
              30.255556756927
            ]
          ]
        ]
      }
    },
    {
      "type": "Feature",
      "properties": {
        "id": "cs_tent_addon",
        "name": "Add-on room",
        "role": "known_equipment",
        "status": "8 x 8 ft user-reported size attached to one end; centered alignment is a planning assumption",
        "dimensions_ft": "8 x 8 ft reported",
        "color": "#d9a900",
        "source_pass_id": "cs"
      },
      "geometry": {
        "type": "Polygon",
        "coordinates": [
          [
            [
              -95.846291431403,
              30.255556746003
            ],
            [
              -95.846309261308,
              30.255541169979
            ],
            [
              -95.84632729356,
              30.255556571215
            ],
            [
              -95.846309463656,
              30.255572147239
            ],
            [
              -95.846291431403,
              30.255556746003
            ]
          ]
        ]
      }
    },
    {
      "type": "Feature",
      "properties": {
        "id": "bg_primary",
        "name": "B. + G. \u2014 Pass A / Two Tents",
        "role": "pass",
        "area_sqft": 600,
        "status": "Saved freeform layout; planning-grade georeferencing, not a survey.",
        "layout_note": "538 sq ft nominal tents; only 62 sq ft remains for all clearance and access",
        "color": "#c27ba0",
        "source": "planning/households/bg.md",
        "saved_x_ft": 130.75,
        "saved_y_ft": 153.75,
        "rotation_deg": 0,
        "z": 50
      },
      "geometry": {
        "type": "Polygon",
        "coordinates": [
          [
            [
              -95.846307346925,
              30.25567331217
            ],
            [
              -95.846221797695,
              30.255671149038
            ],
            [
              -95.846224580195,
              30.255589042038
            ],
            [
              -95.846291118485,
              30.255590724474
            ],
            [
              -95.846290098235,
              30.255620830374
            ],
            [
              -95.846233065415,
              30.255619388286
            ],
            [
              -95.846232508915,
              30.255635809686
            ],
            [
              -95.846308552675,
              30.25563773247
            ],
            [
              -95.846307346925,
              30.25567331217
            ]
          ]
        ]
      }
    },
    {
      "type": "Feature",
      "properties": {
        "id": "bg_primary_tent_buffer",
        "name": "Primary tent provisional clearance",
        "role": "clearance_placeholder",
        "status": "Planning buffer only; verify actual operating clearance.",
        "source_pass_id": "bg_primary"
      },
      "geometry": {
        "type": "Polygon",
        "coordinates": [
          [
            [
              -95.84630730055,
              30.25567468062
            ],
            [
              -95.84622175132,
              30.255672517488
            ],
            [
              -95.84622304982,
              30.255634200888
            ],
            [
              -95.84630859905,
              30.25563636402
            ],
            [
              -95.84630730055,
              30.25567468062
            ]
          ]
        ]
      }
    },
    {
      "type": "Feature",
      "properties": {
        "id": "bg_primary_tent",
        "name": "Primary tent",
        "role": "known_equipment",
        "status": "confirmed for planning",
        "dimensions_ft": "26 x 13 ft (rotated)",
        "color": "#a64d79",
        "source_pass_id": "bg_primary"
      },
      "geometry": {
        "type": "Polygon",
        "coordinates": [
          [
            [
              -95.84630576268,
              30.255673272112
            ],
            [
              -95.84622338194,
              30.255671189096
            ],
            [
              -95.84622458769,
              30.255635609396
            ],
            [
              -95.84630696843,
              30.255637692412
            ],
            [
              -95.84630576268,
              30.255673272112
            ]
          ]
        ]
      }
    },
    {
      "type": "Feature",
      "properties": {
        "id": "bg_community_tent_buffer",
        "name": "Dressing / closet tent provisional clearance",
        "role": "clearance_placeholder",
        "status": "Planning buffer only; verify actual operating clearance.",
        "source_pass_id": "bg_primary"
      },
      "geometry": {
        "type": "Polygon",
        "coordinates": [
          [
            [
              -95.846290098235,
              30.255620830374
            ],
            [
              -95.846223559945,
              30.255619147938
            ],
            [
              -95.846224580195,
              30.255589042038
            ],
            [
              -95.846291118485,
              30.255590724474
            ],
            [
              -95.846290098235,
              30.255620830374
            ]
          ]
        ]
      }
    },
    {
      "type": "Feature",
      "properties": {
        "id": "bg_community_tent",
        "name": "Dressing / closet tent",
        "role": "equipment_placeholder",
        "status": "estimate; replacement model TBD",
        "dimensions_ft": "approx. 20 x 10 ft (rotated)",
        "color": "#c27ba0",
        "source_pass_id": "bg_primary"
      },
      "geometry": {
        "type": "Polygon",
        "coordinates": [
          [
            [
              -95.846288560365,
              30.255619421866
            ],
            [
              -95.846225190565,
              30.255617819546
            ],
            [
              -95.846226118065,
              30.255590450546
            ],
            [
              -95.846289487865,
              30.255592052866
            ],
            [
              -95.846288560365,
              30.255619421866
            ]
          ]
        ]
      }
    },
    {
      "type": "Feature",
      "properties": {
        "id": "bg_generator_1",
        "name": "G1",
        "role": "equipment_placeholder",
        "status": "generic 2 x 2 ft space reservation; B./G. generator model, dimensions, fuel, exhaust, and operating clearances unknown",
        "dimensions_ft": "",
        "color": "#cc0000",
        "source_pass_id": "bg_primary"
      },
      "geometry": {
        "type": "Polygon",
        "coordinates": [
          [
            [
              -95.846230971045,
              30.255634401178
            ],
            [
              -95.846224634065,
              30.255634240946
            ],
            [
              -95.846224819565,
              30.255628767146
            ],
            [
              -95.846231156545,
              30.255628927378
            ],
            [
              -95.846230971045,
              30.255634401178
            ]
          ]
        ]
      }
    },
    {
      "type": "Feature",
      "properties": {
        "id": "bg_generator_2",
        "name": "G2",
        "role": "equipment_placeholder",
        "status": "generic 2 x 2 ft space reservation; B./G. generator model, dimensions, fuel, exhaust, and operating clearances unknown",
        "dimensions_ft": "",
        "color": "#cc0000",
        "source_pass_id": "bg_primary"
      },
      "geometry": {
        "type": "Polygon",
        "coordinates": [
          [
            [
              -95.846231249295,
              30.255626190478
            ],
            [
              -95.846224912315,
              30.255626030246
            ],
            [
              -95.846225097815,
              30.255620556446
            ],
            [
              -95.846231434795,
              30.255620716678
            ],
            [
              -95.846231249295,
              30.255626190478
            ]
          ]
        ]
      }
    },
    {
      "type": "Feature",
      "properties": {
        "id": "bg_community",
        "name": "B. + G. \u2014 Pass B / Community Tent",
        "role": "pass",
        "area_sqft": 600,
        "status": "Saved freeform layout; planning-grade georeferencing, not a survey.",
        "layout_note": "20 x 30 ft tent fills the nominal pass; operational clearance remains unresolved",
        "color": "#c27ba0",
        "source": "planning/households/bg.md",
        "saved_x_ft": 83.5,
        "saved_y_ft": 105.75,
        "rotation_deg": -85,
        "z": 60
      },
      "geometry": {
        "type": "Polygon",
        "coordinates": [
          [
            [
              -95.846473223158,
              30.255744194379
            ],
            [
              -95.846465852175,
              30.255798584433
            ],
            [
              -95.846371401697,
              30.255789034003
            ],
            [
              -95.84637877268,
              30.255734643949
            ],
            [
              -95.846473223158,
              30.255744194379
            ]
          ]
        ]
      }
    },
    {
      "type": "Feature",
      "properties": {
        "id": "bg_community_tent_buffer",
        "name": "Community tent provisional clearance",
        "role": "clearance_placeholder",
        "status": "Planning buffer only; verify actual operating clearance.",
        "source_pass_id": "bg_community"
      },
      "geometry": {
        "type": "Polygon",
        "coordinates": [
          [
            [
              -95.846474981607,
              30.255742993802
            ],
            [
              -95.846467242075,
              30.255800103358
            ],
            [
              -95.846369643248,
              30.25579023458
            ],
            [
              -95.84637738278,
              30.255733125024
            ],
            [
              -95.846474981607,
              30.255742993802
            ]
          ]
        ]
      }
    },
    {
      "type": "Feature",
      "properties": {
        "id": "bg_community_tent",
        "name": "Community tent",
        "role": "equipment_placeholder",
        "status": "20 x 30 ft specified by user; rainfly, stakes, guy lines, and entrances unverified",
        "dimensions_ft": "20 x 30 ft",
        "color": "#8e5f83",
        "source_pass_id": "bg_community"
      },
      "geometry": {
        "type": "Polygon",
        "coordinates": [
          [
            [
              -95.846473223158,
              30.255744194379
            ],
            [
              -95.846465852175,
              30.255798584433
            ],
            [
              -95.846371401697,
              30.255789034003
            ],
            [
              -95.84637877268,
              30.255734643949
            ],
            [
              -95.846473223158,
              30.255744194379
            ]
          ]
        ]
      }
    },
    {
      "type": "Feature",
      "properties": {
        "id": "st",
        "name": "S. + T.",
        "role": "pass",
        "area_sqft": 600,
        "status": "Saved freeform layout; planning-grade georeferencing, not a survey.",
        "layout_note": "264 + 120 + 216 = 600 sq ft",
        "color": "#b4a7d6",
        "source": "planning/households/st.md",
        "saved_x_ft": 177.5,
        "saved_y_ft": 121,
        "rotation_deg": 158,
        "z": 49
      },
      "geometry": {
        "type": "Polygon",
        "coordinates": [
          [
            [
              -95.846084049727,
              30.255578767146
            ],
            [
              -95.846119719937,
              30.255567355403
            ],
            [
              -95.846143940638,
              30.255623843076
            ],
            [
              -95.846132050568,
              30.25562764699
            ],
            [
              -95.846165078796,
              30.255704675634
            ],
            [
              -95.846176968866,
              30.25570087172
            ],
            [
              -95.846196785803,
              30.255747088906
            ],
            [
              -95.846161115593,
              30.255758500649
            ],
            [
              -95.846141298656,
              30.255712283462
            ],
            [
              -95.846153188726,
              30.255708479548
            ],
            [
              -95.846120160498,
              30.255631450904
            ],
            [
              -95.846108270428,
              30.255635254818
            ],
            [
              -95.846084049727,
              30.255578767146
            ]
          ]
        ]
      }
    },
    {
      "type": "Feature",
      "properties": {
        "id": "st_tent_buffer",
        "name": "Primary tent provisional clearance",
        "role": "clearance_placeholder",
        "status": "Planning buffer only; verify actual operating clearance.",
        "source_pass_id": "st"
      },
      "geometry": {
        "type": "Polygon",
        "coordinates": [
          [
            [
              -95.846086086456,
              30.255579575467
            ],
            [
              -95.846118784149,
              30.255569114703
            ],
            [
              -95.846141903909,
              30.255623034754
            ],
            [
              -95.846109206216,
              30.255633495518
            ],
            [
              -95.846086086456,
              30.255579575467
            ]
          ]
        ]
      }
    },
    {
      "type": "Feature",
      "properties": {
        "id": "st_tent",
        "name": "Primary tent",
        "role": "known_equipment",
        "status": "legacy assumed 10 x 20 ft tent in the connected geographic reference",
        "dimensions_ft": "10 x 20 ft",
        "color": "#8e7cc3",
        "source_pass_id": "st"
      },
      "geometry": {
        "type": "Polygon",
        "coordinates": [
          [
            [
              -95.846088123185,
              30.255580383789
            ],
            [
              -95.846117848361,
              30.255570874003
            ],
            [
              -95.846139867179,
              30.255622226433
            ],
            [
              -95.846110142004,
              30.255631736218
            ],
            [
              -95.846088123185,
              30.255580383789
            ]
          ]
        ]
      }
    },
    {
      "type": "Feature",
      "properties": {
        "id": "st_portapotty_buffer",
        "name": "Handicap Portapotty provisional clearance",
        "role": "clearance_placeholder",
        "status": "Planning buffer only; verify actual operating clearance.",
        "source_pass_id": "st"
      },
      "geometry": {
        "type": "Polygon",
        "coordinates": [
          [
            [
              -95.846159188889,
              30.25573429842
            ],
            [
              -95.846179996511,
              30.25572764157
            ],
            [
              -95.846187703098,
              30.255745614921
            ],
            [
              -95.846166895475,
              30.25575227177
            ],
            [
              -95.846159188889,
              30.25573429842
            ]
          ]
        ]
      }
    },
    {
      "type": "Feature",
      "properties": {
        "id": "st_portapotty",
        "name": "Handicap Portapotty",
        "role": "known_equipment",
        "status": "legacy assumed 6 x 6 ft ADA unit in the connected geographic reference",
        "dimensions_ft": "6 x 6 ft ADA",
        "color": "#674ea7",
        "source_pass_id": "st"
      },
      "geometry": {
        "type": "Polygon",
        "coordinates": [
          [
            [
              -95.846161225618,
              30.255735106741
            ],
            [
              -95.846179060723,
              30.25572940087
            ],
            [
              -95.846185666369,
              30.255744806599
            ],
            [
              -95.846167831264,
              30.25575051247
            ],
            [
              -95.846161225618,
              30.255735106741
            ]
          ]
        ]
      }
    },
    {
      "type": "Feature",
      "properties": {
        "id": "road_edge",
        "name": "User-traced campsite-side road edge",
        "role": "road_edge",
        "status": "planning-grade coordinate trace from current satellite view",
        "source": "25 user-supplied WGS84 road-edge coordinates, 2026-07-27",
        "warning": "Not field surveyed; verify the physical west road edge and curvature before placement.",
        "south_extent_local_y_ft": 343.161,
        "extension_status": "full curve replaced by 25 user-supplied road-edge coordinates",
        "southern_extension_source": "User trace from current Google Maps satellite view, 2026-07-27",
        "trace_point_count": 25
      },
      "geometry": {
        "type": "LineString",
        "coordinates": [
          [
            -95.84685074785044,
            30.255345018897092
          ],
          [
            -95.84654497602352,
            30.25534849418894
          ],
          [
            -95.8464698741713,
            30.255339226743747
          ],
          [
            -95.84641622999114,
            30.25531605812693
          ],
          [
            -95.84636929133352,
            30.255278988328673
          ],
          [
            -95.84622981646508,
            30.255153877656273
          ],
          [
            -95.84620969989751,
            30.25515503608915
          ],
          [
            -95.84618153670293,
            30.25517241258076
          ],
          [
            -95.84615069129934,
            30.25525002753905
          ],
          [
            -95.84611582258225,
            30.255311424402922
          ],
          [
            -95.84607961276063,
            30.2553716627981
          ],
          [
            -95.84605547287957,
            30.25543305958592
          ],
          [
            -95.84606217840208,
            30.255492139477614
          ],
          [
            -95.84609436491019,
            30.255624200283474
          ],
          [
            -95.84611850479125,
            30.255705290164002
          ],
          [
            -95.84612252810477,
            30.255788696828425
          ],
          [
            -95.84612252810477,
            30.255872103422007
          ],
          [
            -95.84610241153722,
            30.255925390930827
          ],
          [
            -95.84610911705973,
            30.255958985215003
          ],
          [
            -95.84612252810477,
            30.255967094178448
          ],
          [
            -95.84619494774799,
            30.25600416371702
          ],
          [
            -95.84625529745067,
            30.256040074819158
          ],
          [
            -95.84629016616778,
            30.256070193797925
          ],
          [
            -95.84632369378036,
            30.256120005934868
          ],
          [
            -95.84634783366144,
            30.256173293309207
          ]
        ]
      }
    },
    {
      "type": "Feature",
      "properties": {
        "id": "setback_10",
        "name": "10 ft minimum curved-road setback",
        "role": "setback_10",
        "offset_ft": 10,
        "status": "approximate perpendicular offset from user-traced road edge; not surveyed",
        "south_extent_local_y_ft": 343.161,
        "extension_status": "full curve replaced by 25 user-supplied road-edge coordinates",
        "southern_extension_source": "User trace from current Google Maps satellite view, 2026-07-27",
        "trace_point_count": 25
      },
      "geometry": {
        "type": "LineString",
        "coordinates": [
          [
            -95.846851164898,
            30.255372397251
          ],
          [
            -95.846542936996,
            30.255375818206
          ],
          [
            -95.846460422696,
            30.255365362011
          ],
          [
            -95.846398275459,
            30.25533862311
          ],
          [
            -95.846347169011,
            30.255298598308
          ],
          [
            -95.846218387844,
            30.255179416838
          ],
          [
            -95.846220372764,
            30.255180818108
          ],
          [
            -95.846206950332,
            30.255188777649
          ],
          [
            -95.84617996867,
            30.255260522768
          ],
          [
            -95.846144119852,
            30.255323763489
          ],
          [
            -95.84610876988,
            30.255382404899
          ],
          [
            -95.846086962571,
            30.255436196984
          ],
          [
            -95.846093508457,
            30.255487977062
          ],
          [
            -95.846125231584,
            30.255617968935
          ],
          [
            -95.84614986294,
            30.255701288709
          ],
          [
            -95.846154219706,
            30.255788126764
          ],
          [
            -95.846153833692,
            30.255876400994
          ],
          [
            -95.846134027334,
            30.255927367191
          ],
          [
            -95.846135882367,
            30.255944315796
          ],
          [
            -95.846139709299,
            30.255944084353
          ],
          [
            -95.846212028976,
            30.255981098427
          ],
          [
            -95.846275579925,
            30.256019032885
          ],
          [
            -95.846315284958,
            30.256053492538
          ],
          [
            -95.8463522392,
            30.256108100952
          ],
          [
            -95.84637735261,
            30.256163315735
          ]
        ]
      }
    },
    {
      "type": "Feature",
      "properties": {
        "id": "setback_14",
        "name": "14 ft preferred curved-road setback",
        "role": "setback_14",
        "offset_ft": 14,
        "status": "approximate perpendicular offset from user-traced road edge; not surveyed",
        "south_extent_local_y_ft": 343.161,
        "extension_status": "full curve replaced by 25 user-supplied road-edge coordinates",
        "southern_extension_source": "User trace from current Google Maps satellite view, 2026-07-27",
        "trace_point_count": 25
      },
      "geometry": {
        "type": "LineString",
        "coordinates": [
          [
            -95.846851331716,
            30.255383348592
          ],
          [
            -95.846542121386,
            30.255386747813
          ],
          [
            -95.846456642105,
            30.255375816117
          ],
          [
            -95.846391093646,
            30.255347649103
          ],
          [
            -95.846338320081,
            30.2553064423
          ],
          [
            -95.846213816396,
            30.255189632511
          ],
          [
            -95.846224641911,
            30.255191130916
          ],
          [
            -95.846217115784,
            30.255195323676
          ],
          [
            -95.846191679618,
            30.25526472086
          ],
          [
            -95.846155438759,
            30.255328699124
          ],
          [
            -95.846120432728,
            30.255386701739
          ],
          [
            -95.846099558447,
            30.255437451943
          ],
          [
            -95.846106040479,
            30.255486312095
          ],
          [
            -95.846137578254,
            30.255615476396
          ],
          [
            -95.8461624062,
            30.255699688127
          ],
          [
            -95.846166896347,
            30.255787898738
          ],
          [
            -95.846166355927,
            30.255878120023
          ],
          [
            -95.846146673653,
            30.255928157695
          ],
          [
            -95.84614658849,
            30.255938448028
          ],
          [
            -95.846146581777,
            30.255934880423
          ],
          [
            -95.846218861468,
            30.255971872311
          ],
          [
            -95.846283692915,
            30.256010616112
          ],
          [
            -95.846325332475,
            30.256046812034
          ],
          [
            -95.846363657368,
            30.256103338958
          ],
          [
            -95.84638916019,
            30.256159324706
          ]
        ]
      }
    },
    {
      "type": "Feature",
      "properties": {
        "id": "west_limit",
        "name": "Hard western limit",
        "role": "west_limit",
        "status": "no planned pass or equipment may lie west",
        "source": "30\u00b015'20.86\"N 95\u00b050'47.36\"W to 30\u00b015'19.63\"N 95\u00b050'47.44\"W",
        "note": "The planning constraint uses the infinite alignment through these endpoints."
      },
      "geometry": {
        "type": "LineString",
        "coordinates": [
          [
            -95.84648888888889,
            30.255794444444444
          ],
          [
            -95.84651111111111,
            30.255452777777776
          ]
        ]
      }
    }
  ]
}
