{"type":"FeatureCollection","name":"TRF provisional 600-square-foot campsite placement","properties":{"created_on":"2026-07-27","coordinate_reference":"WGS84 / EPSG:4326","source_points":"user supplied","road_side":"east; campsite is west of road","road_bearing_true_degrees":1.676721,"road_sample_length_ft":21.707,"anchor_to_road_ft":17.269,"preferred_setback_margin_ft":3.269,"working_area_sqft":598.875,"interpretation":"Supplied point is displayed as the road-side southeast/south anchor, not literal southwest corner."},"features":[{"type":"Feature","properties":{"id":"ANCHOR","name":"Supplied corner point","role":"site_anchor","note":"Used provisionally as the road-side southeast corner so the campsite can extend north and west."},"geometry":{"type":"Point","coordinates":[-95.84618,30.255805]}},{"type":"Feature","properties":{"id":"ROAD_A","name":"Road point A","role":"road_point"},"geometry":{"type":"Point","coordinates":[-95.84612334146146,30.255863424245597]}},{"type":"Feature","properties":{"id":"ROAD_B","name":"Road point B","role":"road_point"},"geometry":{"type":"Point","coordinates":[-95.84612535311821,30.255803765364604]}},{"type":"Feature","properties":{"id":"ROAD_EDGE_REFERENCE","name":"Road edge reference","role":"road_edge","bearing_true_deg":1.676721,"sample_length_ft":21.707},"geometry":{"type":"LineString","coordinates":[[-95.846129526332,30.255680002116],[-95.846118411608,30.256009626957]]}},{"type":"Feature","properties":{"id":"SETBACK_10FT","name":"Minimum 10 ft setback","role":"setback_10","offset_ft":10},"geometry":{"type":"LineString","coordinates":[[-95.846161167636,30.255680806198],[-95.846150053019,30.256010431034]]}},{"type":"Feature","properties":{"id":"SETBACK_14FT","name":"Preferred 14 ft setback","role":"setback_14","offset_ft":14},"geometry":{"type":"LineString","coordinates":[[-95.846173824158,30.255681127828],[-95.846162709583,30.256010752663]]}},{"type":"Feature","properties":{"id":"ANCHOR_TO_ROAD","name":"Anchor-to-road perpendicular","role":"measurement","length_ft":17.269},"geometry":{"type":"LineString","coordinates":[[-95.84618,30.255805],[-95.846125358309,30.255803611433]]}},{"type":"Feature","properties":{"id":"PROVISIONAL_SITE","name":"Provisional requested site boundary","role":"site","area_sqft":598.875,"note":"Working stepped footprint; field verification and TRF approval required."},"geometry":{"type":"Polygon","coordinates":[[[-95.84618,30.255805],[-95.846177082433,30.255891526519],[-95.846222171387,30.25589267231],[-95.846224162715,30.255833614528],[-95.846271624743,30.255834820608],[-95.846272550929,30.255807351873],[-95.84618,30.255805]]]}},{"type":"Feature","properties":{"id":"RV_DEPLOYED_ZONE","name":"Deployed RV zone","role":"rv","length_ft":31.5,"width_ft":14.25,"area_sqft":448.875},"geometry":{"type":"Polygon","coordinates":[[[-95.84618,30.255805],[-95.846177082433,30.255891526519],[-95.846222171387,30.25589267231],[-95.846225088914,30.255806145793],[-95.84618,30.255805]]]}},{"type":"Feature","properties":{"id":"CANOPY_ZONE","name":"10 x 15 ft canopy","role":"canopy","north_south_ft":10.0,"east_west_ft":15.0,"area_sqft":150,"orientation":"15 ft side perpendicular to camper"},"geometry":{"type":"Polygon","coordinates":[[[-95.846225088914,30.255806145793],[-95.846224162715,30.255833614528],[-95.846271624743,30.255834820608],[-95.846272550929,30.255807351873],[-95.846225088914,30.255806145793]]]}}]}