{
  "type": "FeatureCollection",
  "name": "trf_approximate_planning_aoi",
  "crs": {"type": "name", "properties": {"name": "urn:ogc:def:crs:OGC:1.3:CRS84"}},
  "features": [
    {
      "type": "Feature",
      "properties": {
        "name": "Approximate TRF planning area",
        "status": "approximate",
        "warning": "Not a parcel, campsite, approval, or survey boundary"
      },
      "geometry": {
        "type": "Polygon",
        "coordinates": [[
          [-95.865, 30.243],
          [-95.823, 30.243],
          [-95.823, 30.286],
          [-95.865, 30.286],
          [-95.865, 30.243]
        ]]
      }
    },
    {
      "type": "Feature",
      "properties": {
        "name": "Fields of New Market approximate center",
        "status": "orientation only"
      },
      "geometry": {"type": "Point", "coordinates": [-95.843, 30.2687]}
    },
    {
      "type": "Feature",
      "properties": {
        "name": "Texas Renaissance Festival approximate center",
        "status": "orientation only"
      },
      "geometry": {"type": "Point", "coordinates": [-95.84094, 30.25392]}
    }
  ]
}
