{
  "type": "FeatureCollection",
  "name": "TRF site control and road setbacks",
  "crs": {
    "type": "name",
    "properties": {
      "name": "urn:ogc:def:crs:OGC:1.3:CRS84"
    }
  },
  "properties": {
    "created_on": "2026-07-27",
    "datum": "WGS84",
    "status": "planning-grade; user-supplied control points; field verification required",
    "road_side_of_campsite": "west",
    "road_bearing_true_degrees_B_to_A": 1.676721411,
    "road_sample_length_ft": 21.707,
    "imagery_trace_source": "Texas NAIP 2022 offline aerial",
    "imagery_trace_status": "planning approximation constrained through ROAD_A and ROAD_B; not surveyed",
    "user_anchor_distance_west_of_reference_road_ft": 17.269,
    "user_anchor_margin_beyond_14ft_offset_ft": 3.269
  },
  "features": [
    {
      "type": "Feature",
      "properties": {
        "id": "P1_USER_SW",
        "label": "User-supplied southwest boundary reference",
        "source": "User-provided coordinate",
        "verification": "not field surveyed"
      },
      "geometry": {
        "type": "Point",
        "coordinates": [
          -95.84618,
          30.255805
        ]
      }
    },
    {
      "type": "Feature",
      "properties": {
        "id": "ROAD_A",
        "label": "Road reference point A (north)",
        "source": "User-provided coordinate"
      },
      "geometry": {
        "type": "Point",
        "coordinates": [
          -95.84612334146146,
          30.255863424245597
        ]
      }
    },
    {
      "type": "Feature",
      "properties": {
        "id": "ROAD_B",
        "label": "Road reference point B (south)",
        "source": "User-provided coordinate"
      },
      "geometry": {
        "type": "Point",
        "coordinates": [
          -95.84612535311821,
          30.255803765364604
        ]
      }
    },
    {
      "type": "Feature",
      "properties": {
        "id": "ROAD_REFERENCE_OBSERVED",
        "label": "Observed road reference segment",
        "length_ft": 21.707,
        "bearing_true_deg_B_to_A": 1.676721,
        "note": "Assumed to represent the road edge nearest the campsite; confirm in the field."
      },
      "geometry": {
        "type": "LineString",
        "coordinates": [
          [
            -95.84612535311821,
            30.255803765364604
          ],
          [
            -95.84612334146146,
            30.255863424245597
          ]
        ]
      }
    },
    {
      "type": "Feature",
      "properties": {
        "id": "ROAD_REFERENCE_EXTENDED",
        "label": "Road reference line extended for planning",
        "length_ft": 120,
        "bearing_true_deg_south_to_north": 1.676721,
        "note": "Straight-line extrapolation from the two user-supplied road points; not proof that the road remains straight."
      },
      "geometry": {
        "type": "LineString",
        "coordinates": [
          [
            -95.84612990756087,
            30.25566869580392
          ],
          [
            -95.84611878700083,
            30.255998493802057
          ]
        ]
      }
    },
    {
      "type": "Feature",
      "properties": {
        "id": "ROAD_SETBACK_10FT",
        "label": "Minimum 10-foot setback line west of road",
        "offset_ft": 10,
        "side": "west",
        "status": "derived planning line"
      },
      "geometry": {
        "type": "LineString",
        "coordinates": [
          [
            -95.84616156548338,
            30.255669500305657
          ],
          [
            -95.84615044502912,
            30.255999298303767
          ]
        ]
      }
    },
    {
      "type": "Feature",
      "properties": {
        "id": "ROAD_SETBACK_14FT",
        "label": "Preferred 14-foot setback line west of road",
        "offset_ft": 14,
        "side": "west",
        "status": "derived planning line"
      },
      "geometry": {
        "type": "LineString",
        "coordinates": [
          [
            -95.84617422865254,
            30.25566982210422
          ],
          [
            -95.84616310824057,
            30.25599962010231
          ]
        ]
      }
    },
    {
      "type": "Feature",
      "properties": {
        "id": "ROAD_EDGE_IMAGERY_CURVE",
        "label": "User-traced campsite-side road edge",
        "source": "25 user-supplied WGS84 road-edge coordinates, 2026-07-27",
        "status": "planning-grade coordinate trace from current satellite view",
        "note": "Use for visual planning only; field-measure the physical campsite-side road edge.",
        "south_extent_local_y_ft": 343.161,
        "extension_status": "full curve replaced by 25 user-supplied road-edge coordinates",
        "southern_extension_source": "User trace from current Google Maps satellite view, 2026-07-27",
        "trace_point_count": 25
      },
      "geometry": {
        "type": "LineString",
        "coordinates": [
          [
            -95.84685074785044,
            30.255345018897092
          ],
          [
            -95.84654497602352,
            30.25534849418894
          ],
          [
            -95.8464698741713,
            30.255339226743747
          ],
          [
            -95.84641622999114,
            30.25531605812693
          ],
          [
            -95.84636929133352,
            30.255278988328673
          ],
          [
            -95.84622981646508,
            30.255153877656273
          ],
          [
            -95.84620969989751,
            30.25515503608915
          ],
          [
            -95.84618153670293,
            30.25517241258076
          ],
          [
            -95.84615069129934,
            30.25525002753905
          ],
          [
            -95.84611582258225,
            30.255311424402922
          ],
          [
            -95.84607961276063,
            30.2553716627981
          ],
          [
            -95.84605547287957,
            30.25543305958592
          ],
          [
            -95.84606217840208,
            30.255492139477614
          ],
          [
            -95.84609436491019,
            30.255624200283474
          ],
          [
            -95.84611850479125,
            30.255705290164002
          ],
          [
            -95.84612252810477,
            30.255788696828425
          ],
          [
            -95.84612252810477,
            30.255872103422007
          ],
          [
            -95.84610241153722,
            30.255925390930827
          ],
          [
            -95.84610911705973,
            30.255958985215003
          ],
          [
            -95.84612252810477,
            30.255967094178448
          ],
          [
            -95.84619494774799,
            30.25600416371702
          ],
          [
            -95.84625529745067,
            30.256040074819158
          ],
          [
            -95.84629016616778,
            30.256070193797925
          ],
          [
            -95.84632369378036,
            30.256120005934868
          ],
          [
            -95.84634783366144,
            30.256173293309207
          ]
        ]
      }
    },
    {
      "type": "Feature",
      "properties": {
        "id": "ROAD_CURVE_SETBACK_10FT",
        "label": "Minimum 10-foot offset from aerial-traced road curve",
        "offset_ft": 10,
        "side": "west",
        "status": "approximate perpendicular offset from user-traced road edge; not surveyed",
        "south_extent_local_y_ft": 343.161,
        "extension_status": "full curve replaced by 25 user-supplied road-edge coordinates",
        "southern_extension_source": "User trace from current Google Maps satellite view, 2026-07-27",
        "trace_point_count": 25
      },
      "geometry": {
        "type": "LineString",
        "coordinates": [
          [
            -95.846851164898,
            30.255372397251
          ],
          [
            -95.846542936996,
            30.255375818206
          ],
          [
            -95.846460422696,
            30.255365362011
          ],
          [
            -95.846398275459,
            30.25533862311
          ],
          [
            -95.846347169011,
            30.255298598308
          ],
          [
            -95.846218387844,
            30.255179416838
          ],
          [
            -95.846220372764,
            30.255180818108
          ],
          [
            -95.846206950332,
            30.255188777649
          ],
          [
            -95.84617996867,
            30.255260522768
          ],
          [
            -95.846144119852,
            30.255323763489
          ],
          [
            -95.84610876988,
            30.255382404899
          ],
          [
            -95.846086962571,
            30.255436196984
          ],
          [
            -95.846093508457,
            30.255487977062
          ],
          [
            -95.846125231584,
            30.255617968935
          ],
          [
            -95.84614986294,
            30.255701288709
          ],
          [
            -95.846154219706,
            30.255788126764
          ],
          [
            -95.846153833692,
            30.255876400994
          ],
          [
            -95.846134027334,
            30.255927367191
          ],
          [
            -95.846135882367,
            30.255944315796
          ],
          [
            -95.846139709299,
            30.255944084353
          ],
          [
            -95.846212028976,
            30.255981098427
          ],
          [
            -95.846275579925,
            30.256019032885
          ],
          [
            -95.846315284958,
            30.256053492538
          ],
          [
            -95.8463522392,
            30.256108100952
          ],
          [
            -95.84637735261,
            30.256163315735
          ]
        ]
      }
    },
    {
      "type": "Feature",
      "properties": {
        "id": "ROAD_CURVE_SETBACK_14FT",
        "label": "Preferred 14-foot offset from aerial-traced road curve",
        "offset_ft": 14,
        "side": "west",
        "status": "approximate perpendicular offset from user-traced road edge; not surveyed",
        "south_extent_local_y_ft": 343.161,
        "extension_status": "full curve replaced by 25 user-supplied road-edge coordinates",
        "southern_extension_source": "User trace from current Google Maps satellite view, 2026-07-27",
        "trace_point_count": 25
      },
      "geometry": {
        "type": "LineString",
        "coordinates": [
          [
            -95.846851331716,
            30.255383348592
          ],
          [
            -95.846542121386,
            30.255386747813
          ],
          [
            -95.846456642105,
            30.255375816117
          ],
          [
            -95.846391093646,
            30.255347649103
          ],
          [
            -95.846338320081,
            30.2553064423
          ],
          [
            -95.846213816396,
            30.255189632511
          ],
          [
            -95.846224641911,
            30.255191130916
          ],
          [
            -95.846217115784,
            30.255195323676
          ],
          [
            -95.846191679618,
            30.25526472086
          ],
          [
            -95.846155438759,
            30.255328699124
          ],
          [
            -95.846120432728,
            30.255386701739
          ],
          [
            -95.846099558447,
            30.255437451943
          ],
          [
            -95.846106040479,
            30.255486312095
          ],
          [
            -95.846137578254,
            30.255615476396
          ],
          [
            -95.8461624062,
            30.255699688127
          ],
          [
            -95.846166896347,
            30.255787898738
          ],
          [
            -95.846166355927,
            30.255878120023
          ],
          [
            -95.846146673653,
            30.255928157695
          ],
          [
            -95.84614658849,
            30.255938448028
          ],
          [
            -95.846146581777,
            30.255934880423
          ],
          [
            -95.846218861468,
            30.255971872311
          ],
          [
            -95.846283692915,
            30.256010616112
          ],
          [
            -95.846325332475,
            30.256046812034
          ],
          [
            -95.846363657368,
            30.256103338958
          ],
          [
            -95.84638916019,
            30.256159324706
          ]
        ]
      }
    },
    {
      "type": "Feature",
      "properties": {
        "id": "WEST_LIMIT",
        "label": "Hard western planning limit",
        "source": "User-provided coordinates",
        "status": "no planned pass or equipment may lie west",
        "note": "Constraint uses the infinite line through the two supplied endpoints."
      },
      "geometry": {
        "type": "LineString",
        "coordinates": [
          [
            -95.84648888888889,
            30.255794444444444
          ],
          [
            -95.84651111111111,
            30.255452777777776
          ]
        ]
      }
    },
    {
      "type": "Feature",
      "properties": {
        "id": "P1_TO_ROAD_PERPENDICULAR",
        "label": "Perpendicular from user anchor to road reference",
        "length_ft": 17.269,
        "preferred_setback_margin_ft": 3.269,
        "note": "Distance is to the infinite straight line fitted through ROAD_A and ROAD_B."
      },
      "geometry": {
        "type": "LineString",
        "coordinates": [
          [
            -95.84618,
            30.255805
          ],
          [
            -95.84612535830868,
            30.255803611432707
          ]
        ]
      }
    }
  ]
}
